KUIPER-00053            
1 64513U 25134P   26004.75791883  .00003851  00000+0  53383-3 0  9995
2 64513  51.9004 145.7947 0000209 114.2742 245.8242 14.79938790 30747
KUIPER-00054            
1 64514U 25134Q   26004.69539354  .00003305  00000+0  46470-3 0  9995
2 64514  51.8972 141.0536 0005892  98.2350 261.9281 14.79724334 30809
KUIPER-00055            
1 64515U 25134R   26005.03917811  .00018536  00000+0  89893-3 0  9991
2 64515  51.8903 119.1475 0001683 299.2620  60.8191 15.18539230 31146
KUIPER-00056            
1 64516U 25134S   26004.75612073  .00001185  00000+0  18463-3 0  9999
2 64516  51.9015 146.8390 0002228 111.0809 249.0391 14.79886711 30733
KUIPER-00057            
1 64517U 25134T   26004.74802147  .00000312  00000+0  70189-4 0  9997
2 64517  51.8996 154.3567 0009676  66.9015 293.2966 14.79938304 30625
KUIPER-00058            
1 64518U 25134U   26004.75505871  .00005214  00000+0  71222-3 0  9997
2 64518  51.9005 148.2468 0004583 113.3046 246.8400 14.79946638 30719
KUIPER-00059            
1 64519U 25134V   26004.69290220 -.00002082  00000+0 -24392-3 0  9998
2 64519  51.8999 143.5770 0002020 267.2184  92.8547 14.79962157 30772
KUIPER-00060            
1 64520U 25134W   26004.69127720  .00005753  00000+0  78220-3 0  9999
2 64520  51.9030 144.6275 0002233 148.6740 211.4356 14.79980649 30749
