<?xml version="1.0" encoding="UTF-8"?>
<ndm xmlns:xsi="http://www.w3.org/2001/XMLSchema-instance" xsi:noNamespaceSchemaLocation="https://sanaregistry.org/r/ndmxml_unqualified/ndmxml-2.0.0-master-2.0.xsd">
<omm id="CCSDS_OMM_VERS" version="2.0">
<header><CREATION_DATE/><ORIGINATOR/></header><body><segment><metadata><OBJECT_NAME>KUIPER-00053</OBJECT_NAME><OBJECT_ID>2025-134P</OBJECT_ID><CENTER_NAME>EARTH</CENTER_NAME><REF_FRAME>TEME</REF_FRAME><TIME_SYSTEM>UTC</TIME_SYSTEM><MEAN_ELEMENT_THEORY>SGP4</MEAN_ELEMENT_THEORY></metadata><data><meanElements><EPOCH>2026-01-04T18:11:24.186912</EPOCH><MEAN_MOTION>14.79938790</MEAN_MOTION><ECCENTRICITY>.00002097</ECCENTRICITY><INCLINATION>51.9004</INCLINATION><RA_OF_ASC_NODE>145.7947</RA_OF_ASC_NODE><ARG_OF_PERICENTER>114.2742</ARG_OF_PERICENTER><MEAN_ANOMALY>245.8242</MEAN_ANOMALY></meanElements><tleParameters><EPHEMERIS_TYPE>0</EPHEMERIS_TYPE><CLASSIFICATION_TYPE>U</CLASSIFICATION_TYPE><NORAD_CAT_ID>64513</NORAD_CAT_ID><ELEMENT_SET_NO>999</ELEMENT_SET_NO><REV_AT_EPOCH>3074</REV_AT_EPOCH><BSTAR>.53382798E-3</BSTAR><MEAN_MOTION_DOT>.3851E-4</MEAN_MOTION_DOT><MEAN_MOTION_DDOT>0</MEAN_MOTION_DDOT></tleParameters></data></segment></body></omm>
<omm id="CCSDS_OMM_VERS" version="2.0">
<header><CREATION_DATE/><ORIGINATOR/></header><body><segment><metadata><OBJECT_NAME>KUIPER-00054</OBJECT_NAME><OBJECT_ID>2025-134Q</OBJECT_ID><CENTER_NAME>EARTH</CENTER_NAME><REF_FRAME>TEME</REF_FRAME><TIME_SYSTEM>UTC</TIME_SYSTEM><MEAN_ELEMENT_THEORY>SGP4</MEAN_ELEMENT_THEORY></metadata><data><meanElements><EPOCH>2026-01-04T16:41:22.001856</EPOCH><MEAN_MOTION>14.79724334</MEAN_MOTION><ECCENTRICITY>.00058925</ECCENTRICITY><INCLINATION>51.8972</INCLINATION><RA_OF_ASC_NODE>141.0536</RA_OF_ASC_NODE><ARG_OF_PERICENTER>98.2350</ARG_OF_PERICENTER><MEAN_ANOMALY>261.9281</MEAN_ANOMALY></meanElements><tleParameters><EPHEMERIS_TYPE>0</EPHEMERIS_TYPE><CLASSIFICATION_TYPE>U</CLASSIFICATION_TYPE><NORAD_CAT_ID>64514</NORAD_CAT_ID><ELEMENT_SET_NO>999</ELEMENT_SET_NO><REV_AT_EPOCH>3080</REV_AT_EPOCH><BSTAR>.46469876E-3</BSTAR><MEAN_MOTION_DOT>.3305E-4</MEAN_MOTION_DOT><MEAN_MOTION_DDOT>0</MEAN_MOTION_DDOT></tleParameters></data></segment></body></omm>
<omm id="CCSDS_OMM_VERS" version="2.0">
<header><CREATION_DATE/><ORIGINATOR/></header><body><segment><metadata><OBJECT_NAME>KUIPER-00055</OBJECT_NAME><OBJECT_ID>2025-134R</OBJECT_ID><CENTER_NAME>EARTH</CENTER_NAME><REF_FRAME>TEME</REF_FRAME><TIME_SYSTEM>UTC</TIME_SYSTEM><MEAN_ELEMENT_THEORY>SGP4</MEAN_ELEMENT_THEORY></metadata><data><meanElements><EPOCH>2026-01-05T00:56:24.988704</EPOCH><MEAN_MOTION>15.18539230</MEAN_MOTION><ECCENTRICITY>.00016834</ECCENTRICITY><INCLINATION>51.8903</INCLINATION><RA_OF_ASC_NODE>119.1475</RA_OF_ASC_NODE><ARG_OF_PERICENTER>299.2620</ARG_OF_PERICENTER><MEAN_ANOMALY>60.8191</MEAN_ANOMALY></meanElements><tleParameters><EPHEMERIS_TYPE>0</EPHEMERIS_TYPE><CLASSIFICATION_TYPE>U</CLASSIFICATION_TYPE><NORAD_CAT_ID>64515</NORAD_CAT_ID><ELEMENT_SET_NO>999</ELEMENT_SET_NO><REV_AT_EPOCH>3114</REV_AT_EPOCH><BSTAR>.89893411E-3</BSTAR><MEAN_MOTION_DOT>.18536E-3</MEAN_MOTION_DOT><MEAN_MOTION_DDOT>0</MEAN_MOTION_DDOT></tleParameters></data></segment></body></omm>
<omm id="CCSDS_OMM_VERS" version="2.0">
<header><CREATION_DATE/><ORIGINATOR/></header><body><segment><metadata><OBJECT_NAME>KUIPER-00056</OBJECT_NAME><OBJECT_ID>2025-134S</OBJECT_ID><CENTER_NAME>EARTH</CENTER_NAME><REF_FRAME>TEME</REF_FRAME><TIME_SYSTEM>UTC</TIME_SYSTEM><MEAN_ELEMENT_THEORY>SGP4</MEAN_ELEMENT_THEORY></metadata><data><meanElements><EPOCH>2026-01-04T18:08:48.831072</EPOCH><MEAN_MOTION>14.79886711</MEAN_MOTION><ECCENTRICITY>.00022287</ECCENTRICITY><INCLINATION>51.9015</INCLINATION><RA_OF_ASC_NODE>146.8390</RA_OF_ASC_NODE><ARG_OF_PERICENTER>111.0809</ARG_OF_PERICENTER><MEAN_ANOMALY>249.0391</MEAN_ANOMALY></meanElements><tleParameters><EPHEMERIS_TYPE>0</EPHEMERIS_TYPE><CLASSIFICATION_TYPE>U</CLASSIFICATION_TYPE><NORAD_CAT_ID>64516</NORAD_CAT_ID><ELEMENT_SET_NO>999</ELEMENT_SET_NO><REV_AT_EPOCH>3073</REV_AT_EPOCH><BSTAR>.1846344E-3</BSTAR><MEAN_MOTION_DOT>.1185E-4</MEAN_MOTION_DOT><MEAN_MOTION_DDOT>0</MEAN_MOTION_DDOT></tleParameters></data></segment></body></omm>
<omm id="CCSDS_OMM_VERS" version="2.0">
<header><CREATION_DATE/><ORIGINATOR/></header><body><segment><metadata><OBJECT_NAME>KUIPER-00057</OBJECT_NAME><OBJECT_ID>2025-134T</OBJECT_ID><CENTER_NAME>EARTH</CENTER_NAME><REF_FRAME>TEME</REF_FRAME><TIME_SYSTEM>UTC</TIME_SYSTEM><MEAN_ELEMENT_THEORY>SGP4</MEAN_ELEMENT_THEORY></metadata><data><meanElements><EPOCH>2026-01-04T17:57:09.055008</EPOCH><MEAN_MOTION>14.79938304</MEAN_MOTION><ECCENTRICITY>.00096769</ECCENTRICITY><INCLINATION>51.8996</INCLINATION><RA_OF_ASC_NODE>154.3567</RA_OF_ASC_NODE><ARG_OF_PERICENTER>66.9015</ARG_OF_PERICENTER><MEAN_ANOMALY>293.2966</MEAN_ANOMALY></meanElements><tleParameters><EPHEMERIS_TYPE>0</EPHEMERIS_TYPE><CLASSIFICATION_TYPE>U</CLASSIFICATION_TYPE><NORAD_CAT_ID>64517</NORAD_CAT_ID><ELEMENT_SET_NO>999</ELEMENT_SET_NO><REV_AT_EPOCH>3062</REV_AT_EPOCH><BSTAR>.70189242E-4</BSTAR><MEAN_MOTION_DOT>.312E-5</MEAN_MOTION_DOT><MEAN_MOTION_DDOT>0</MEAN_MOTION_DDOT></tleParameters></data></segment></body></omm>
<omm id="CCSDS_OMM_VERS" version="2.0">
<header><CREATION_DATE/><ORIGINATOR/></header><body><segment><metadata><OBJECT_NAME>KUIPER-00058</OBJECT_NAME><OBJECT_ID>2025-134U</OBJECT_ID><CENTER_NAME>EARTH</CENTER_NAME><REF_FRAME>TEME</REF_FRAME><TIME_SYSTEM>UTC</TIME_SYSTEM><MEAN_ELEMENT_THEORY>SGP4</MEAN_ELEMENT_THEORY></metadata><data><meanElements><EPOCH>2026-01-04T18:07:17.072544</EPOCH><MEAN_MOTION>14.79946638</MEAN_MOTION><ECCENTRICITY>.00045836</ECCENTRICITY><INCLINATION>51.9005</INCLINATION><RA_OF_ASC_NODE>148.2468</RA_OF_ASC_NODE><ARG_OF_PERICENTER>113.3046</ARG_OF_PERICENTER><MEAN_ANOMALY>246.8400</MEAN_ANOMALY></meanElements><tleParameters><EPHEMERIS_TYPE>0</EPHEMERIS_TYPE><CLASSIFICATION_TYPE>U</CLASSIFICATION_TYPE><NORAD_CAT_ID>64518</NORAD_CAT_ID><ELEMENT_SET_NO>999</ELEMENT_SET_NO><REV_AT_EPOCH>3071</REV_AT_EPOCH><BSTAR>.7122208E-3</BSTAR><MEAN_MOTION_DOT>.5214E-4</MEAN_MOTION_DOT><MEAN_MOTION_DDOT>0</MEAN_MOTION_DDOT></tleParameters></data></segment></body></omm>
<omm id="CCSDS_OMM_VERS" version="2.0">
<header><CREATION_DATE/><ORIGINATOR/></header><body><segment><metadata><OBJECT_NAME>KUIPER-00059</OBJECT_NAME><OBJECT_ID>2025-134V</OBJECT_ID><CENTER_NAME>EARTH</CENTER_NAME><REF_FRAME>TEME</REF_FRAME><TIME_SYSTEM>UTC</TIME_SYSTEM><MEAN_ELEMENT_THEORY>SGP4</MEAN_ELEMENT_THEORY></metadata><data><meanElements><EPOCH>2026-01-04T16:37:46.750080</EPOCH><MEAN_MOTION>14.79962157</MEAN_MOTION><ECCENTRICITY>.00020205</ECCENTRICITY><INCLINATION>51.8999</INCLINATION><RA_OF_ASC_NODE>143.5770</RA_OF_ASC_NODE><ARG_OF_PERICENTER>267.2184</ARG_OF_PERICENTER><MEAN_ANOMALY>92.8547</MEAN_ANOMALY></meanElements><tleParameters><EPHEMERIS_TYPE>0</EPHEMERIS_TYPE><CLASSIFICATION_TYPE>U</CLASSIFICATION_TYPE><NORAD_CAT_ID>64519</NORAD_CAT_ID><ELEMENT_SET_NO>999</ELEMENT_SET_NO><REV_AT_EPOCH>3077</REV_AT_EPOCH><BSTAR>-.24392111E-3</BSTAR><MEAN_MOTION_DOT>-.2082E-4</MEAN_MOTION_DOT><MEAN_MOTION_DDOT>0</MEAN_MOTION_DDOT></tleParameters></data></segment></body></omm>
<omm id="CCSDS_OMM_VERS" version="2.0">
<header><CREATION_DATE/><ORIGINATOR/></header><body><segment><metadata><OBJECT_NAME>KUIPER-00060</OBJECT_NAME><OBJECT_ID>2025-134W</OBJECT_ID><CENTER_NAME>EARTH</CENTER_NAME><REF_FRAME>TEME</REF_FRAME><TIME_SYSTEM>UTC</TIME_SYSTEM><MEAN_ELEMENT_THEORY>SGP4</MEAN_ELEMENT_THEORY></metadata><data><meanElements><EPOCH>2026-01-04T16:35:26.350080</EPOCH><MEAN_MOTION>14.79980649</MEAN_MOTION><ECCENTRICITY>.00022338</ECCENTRICITY><INCLINATION>51.9030</INCLINATION><RA_OF_ASC_NODE>144.6275</RA_OF_ASC_NODE><ARG_OF_PERICENTER>148.6740</ARG_OF_PERICENTER><MEAN_ANOMALY>211.4356</MEAN_ANOMALY></meanElements><tleParameters><EPHEMERIS_TYPE>0</EPHEMERIS_TYPE><CLASSIFICATION_TYPE>U</CLASSIFICATION_TYPE><NORAD_CAT_ID>64520</NORAD_CAT_ID><ELEMENT_SET_NO>999</ELEMENT_SET_NO><REV_AT_EPOCH>3074</REV_AT_EPOCH><BSTAR>.78220408E-3</BSTAR><MEAN_MOTION_DOT>.5753E-4</MEAN_MOTION_DOT><MEAN_MOTION_DDOT>0</MEAN_MOTION_DDOT></tleParameters></data></segment></body></omm>

</ndm>
